{"type":"FeatureCollection","features":[{"type":"Feature","properties":{"name":"Plac Centralny im. R. Reagana","mode":"bus","text":"189 662","n":2,"tip":0},"geometry":{"type":"Point","coordinates":[20.05714,50.034848]}},{"type":"Feature","properties":{"name":"Plac Centralny im. R. Reagana","mode":"tram","text":"62","n":1,"tip":0},"geometry":{"type":"Point","coordinates":[20.05714,50.034848]}},{"type":"Feature","properties":{"name":"Kombinat","mode":"bus","text":"132 138 139 174 242 272 463","n":7,"tip":0},"geometry":{"type":"Point","coordinates":[20.078992,50.038373]}},{"type":"Feature","properties":{"name":"Kombinat","mode":"tram","text":"75","n":1,"tip":0},"geometry":{"type":"Point","coordinates":[20.078992,50.038373]}},{"type":"Feature","properties":{"name":"Wzgórza Krzesławickie","mode":"tram","text":"1 5 74","n":3,"tip":0},"geometry":{"type":"Point","coordinates":[20.07626,50.045424]}},{"type":"Feature","properties":{"name":"Zesławice","mode":"bus","text":"122","n":1,"tip":1},"geometry":{"type":"Point","coordinates":[20.065334,50.050712]}},{"type":"Feature","properties":{"name":"Aleja Przyjaźni","mode":"bus","text":"122 160 572","n":3,"tip":0},"geometry":{"type":"Point","coordinates":[20.05714,50.036611]}},{"type":"Feature","properties":{"name":"Mistrzejowice","mode":"bus","text":"123 482","n":2,"tip":0},"geometry":{"type":"Point","coordinates":[20.038019,50.041899]}},{"type":"Feature","properties":{"name":"Mistrzejowice","mode":"tram","text":"14 16","n":2,"tip":0},"geometry":{"type":"Point","coordinates":[20.038019,50.041899]}},{"type":"Feature","properties":{"name":"Os. Piastów","mode":"bus","text":"105 664","n":2,"tip":0},"geometry":{"type":"Point","coordinates":[20.048945,50.045424]}},{"type":"Feature","properties":{"name":"Os. Piastów","mode":"tram","text":"21 52","n":2,"tip":0},"geometry":{"type":"Point","coordinates":[20.048945,50.045424]}},{"type":"Feature","properties":{"name":"Os. Na Stoku","mode":"bus","text":"180 182 511 608","n":4,"tip":1},"geometry":{"type":"Point","coordinates":[20.068066,50.048949]}},{"type":"Feature","properties":{"name":"Zajezdnia Bieńczyce","mode":"bus","text":"601","n":1,"tip":0},"geometry":{"type":"Point","coordinates":[20.059871,50.041899]}},{"type":"Feature","properties":{"name":"Rondo Hipokratesa","mode":"tram","text":"9","n":1,"tip":0},"geometry":{"type":"Point","coordinates":[20.048945,50.040136]}},{"type":"Feature","properties":{"name":"Lesisko","mode":"bus","text":"149","n":1,"tip":0},"geometry":{"type":"Point","coordinates":[20.05714,50.02956]}},{"type":"Feature","properties":{"name":"Zalew Nowohucki","mode":"tram","text":"75","n":1,"tip":0},"geometry":{"type":"Point","coordinates":[20.070797,50.038373]}},{"type":"Feature","properties":{"name":"Zajezdnia Nowa Huta","mode":"bus","text":"601","n":1,"tip":0},"geometry":{"type":"Point","coordinates":[20.078992,50.040136]}},{"type":"Feature","properties":{"name":"Pleszów","mode":"bus","text":"111 160 161 171 211 271","n":6,"tip":0},"geometry":{"type":"Point","coordinates":[20.109039,50.038373]}},{"type":"Feature","properties":{"name":"Pleszów","mode":"tram","text":"10 21","n":2,"tip":0},"geometry":{"type":"Point","coordinates":[20.109039,50.038373]}},{"type":"Feature","properties":{"name":"Ruszcza","mode":"bus","text":"160","n":1,"tip":0},"geometry":{"type":"Point","coordinates":[20.12816,50.041899]}},{"type":"Feature","properties":{"name":"Wróżenice","mode":"bus","text":"171","n":1,"tip":0},"geometry":{"type":"Point","coordinates":[20.141818,50.045424]}},{"type":"Feature","properties":{"name":"Czyżyny Dworzec","mode":"bus","text":"148 202 212 222 232 262 611 A50 A57","n":9,"tip":0},"geometry":{"type":"Point","coordinates":[20.043482,50.034848]}},{"type":"Feature","properties":{"name":"Czerwone Maki P+R","mode":"bus","text":"104 204 223 233 253 283 476 662 903","n":9,"tip":0},"geometry":{"type":"Point","coordinates":[19.977924,49.997832]}},{"type":"Feature","properties":{"name":"Czerwone Maki P+R","mode":"tram","text":"11 17 18 52 62","n":5,"tip":0},"geometry":{"type":"Point","coordinates":[19.977924,49.997832]}},{"type":"Feature","properties":{"name":"Kliny","mode":"bus","text":"151 194 494 608","n":4,"tip":1},"geometry":{"type":"Point","coordinates":[19.975193,49.985493]}},{"type":"Feature","properties":{"name":"Salwator","mode":"bus","text":"209 229 239 249 259 269 279 310","n":8,"tip":0},"geometry":{"type":"Point","coordinates":[19.991582,50.015459]}},{"type":"Feature","properties":{"name":"Salwator","mode":"tram","text":"1 13","n":2,"tip":0},"geometry":{"type":"Point","coordinates":[19.991582,50.015459]}},{"type":"Feature","properties":{"name":"Bielany","mode":"bus","text":"102 609","n":2,"tip":0},"geometry":{"type":"Point","coordinates":[19.964267,50.006645]}},{"type":"Feature","properties":{"name":"Baba Jaga","mode":"bus","text":"434","n":1,"tip":0},"geometry":{"type":"Point","coordinates":[19.975193,50.013696]}},{"type":"Feature","properties":{"name":"ZOO","mode":"bus","text":"134 434","n":2,"tip":1},"geometry":{"type":"Point","coordinates":[19.972461,50.011933]}},{"type":"Feature","properties":{"name":"Chełm","mode":"bus","text":"126 192","n":2,"tip":0},"geometry":{"type":"Point","coordinates":[19.972461,50.018984]}},{"type":"Feature","properties":{"name":"Olszanica Bory","mode":"bus","text":"192","n":1,"tip":0},"geometry":{"type":"Point","coordinates":[19.964267,50.013696]}},{"type":"Feature","properties":{"name":"Cichy Kącik","mode":"tram","text":"8 14","n":2,"tip":0},"geometry":{"type":"Point","coordinates":[19.991582,50.020747]}},{"type":"Feature","properties":{"name":"Przybyszewskiego","mode":"bus","text":"139","n":1,"tip":0},"geometry":{"type":"Point","coordinates":[19.991582,50.022509]}},{"type":"Feature","properties":{"name":"Bronowice Małe","mode":"bus","text":"200 210 218 228 230 238 248 258 268 278 288 298 664 704 708 910 918 948","n":18,"tip":0},"geometry":{"type":"Point","coordinates":[19.986119,50.026035]}},{"type":"Feature","properties":{"name":"Lindego","mode":"bus","text":"120 572","n":2,"tip":0},"geometry":{"type":"Point","coordinates":[19.980656,50.026035]}},{"type":"Feature","properties":{"name":"Azory","mode":"bus","text":"130 138 173 494","n":4,"tip":0},"geometry":{"type":"Point","coordinates":[19.997045,50.031323]}},{"type":"Feature","properties":{"name":"Rondo Ofiar Katynia","mode":"bus","text":"238 258","n":2,"tip":0},"geometry":{"type":"Point","coordinates":[19.988851,50.027797]}},{"type":"Feature","properties":{"name":"Prądnik Biały","mode":"bus","text":"144 904","n":2,"tip":1},"geometry":{"type":"Point","coordinates":[20.013435,50.040136]}},{"type":"Feature","properties":{"name":"Szpital Okulistyczny","mode":"bus","text":"149","n":1,"tip":1},"geometry":{"type":"Point","coordinates":[20.07626,50.047187]}},{"type":"Feature","properties":{"name":"Krowodrza Górka P+R","mode":"bus","text":"102 137 150 168 194 207 220 227 240 267 290 937","n":12,"tip":0},"geometry":{"type":"Point","coordinates":[20.007971,50.034848]}},{"type":"Feature","properties":{"name":"Krowodrza Górka P+R","mode":"tram","text":"3 5","n":2,"tip":0},"geometry":{"type":"Point","coordinates":[20.007971,50.034848]}},{"type":"Feature","properties":{"name":"Witkowice","mode":"bus","text":"317","n":1,"tip":0},"geometry":{"type":"Point","coordinates":[20.016166,50.045424]}},{"type":"Feature","properties":{"name":"Górka Narodowa P+R","mode":"bus","text":"128 169 217 247 257 277 280 297 469 503 669 917","n":12,"tip":0},"geometry":{"type":"Point","coordinates":[20.027092,50.045424]}},{"type":"Feature","properties":{"name":"Górka Narodowa P+R","mode":"tram","text":"18 50 69 75","n":4,"tip":0},"geometry":{"type":"Point","coordinates":[20.027092,50.045424]}},{"type":"Feature","properties":{"name":"Mydlniki Wapiennik SKA P+R","mode":"bus","text":"164 199 601","n":3,"tip":1},"geometry":{"type":"Point","coordinates":[19.975193,50.027797]}},{"type":"Feature","properties":{"name":"Os. Gotyk","mode":"bus","text":"137","n":1,"tip":0},"geometry":{"type":"Point","coordinates":[20.027092,50.041899]}},{"type":"Feature","properties":{"name":"Dworzec Główny Wschód","mode":"bus","text":"125 182 192 317 482 609 902","n":7,"tip":0},"geometry":{"type":"Point","coordinates":[20.013435,50.027797]}},{"type":"Feature","properties":{"name":"Bronowice Wielkie Wschód","mode":"bus","text":"168 511 611","n":3,"tip":0},"geometry":{"type":"Point","coordinates":[19.991582,50.033085]}},{"type":"Feature","properties":{"name":"Kliny Poranne","mode":"bus","text":"121","n":1,"tip":0},"geometry":{"type":"Point","coordinates":[19.980656,49.983731]}},{"type":"Feature","properties":{"name":"Swoszowice SKA P+R","mode":"bus","text":"104 155","n":2,"tip":0},"geometry":{"type":"Point","coordinates":[19.991582,49.989019]}},{"type":"Feature","properties":{"name":"Os. Podwawelskie","mode":"bus","text":"112 124 126 162 219 300 424 708 712 A49 A60 LR0","n":12,"tip":1},"geometry":{"type":"Point","coordinates":[20.002508,50.013696]}},{"type":"Feature","properties":{"name":"Kostrze OSP","mode":"bus","text":"176 476","n":2,"tip":0},"geometry":{"type":"Point","coordinates":[19.96973,50.001357]}},{"type":"Feature","properties":{"name":"Wały Wiślane","mode":"bus","text":"203","n":1,"tip":0},"geometry":{"type":"Point","coordinates":[19.966998,49.999595]}},{"type":"Feature","properties":{"name":"Tyniec Kamieniołom","mode":"bus","text":"712","n":1,"tip":0},"geometry":{"type":"Point","coordinates":[19.958803,49.989019]}},{"type":"Feature","properties":{"name":"Kostrze","mode":"bus","text":"112","n":1,"tip":0},"geometry":{"type":"Point","coordinates":[19.966998,49.994307]}},{"type":"Feature","properties":{"name":"Sidzina","mode":"bus","text":"175 475 610","n":3,"tip":0},"geometry":{"type":"Point","coordinates":[19.972461,49.980205]}},{"type":"Feature","properties":{"name":"Łagiewniki","mode":"bus","text":"463 915","n":2,"tip":0},"geometry":{"type":"Point","coordinates":[19.999777,50.006645]}},{"type":"Feature","properties":{"name":"Borek Fałęcki","mode":"bus","text":"121 151 175 214 215 225 235 243 245 254 255 265 275 285 293 475 610","n":17,"tip":0},"geometry":{"type":"Point","coordinates":[19.991582,49.996069]}},{"type":"Feature","properties":{"name":"Borek Fałęcki","mode":"tram","text":"8 22 50","n":3,"tip":0},"geometry":{"type":"Point","coordinates":[19.991582,49.996069]}},{"type":"Feature","properties":{"name":"Piaskowa","mode":"bus","text":"150","n":1,"tip":0},"geometry":{"type":"Point","coordinates":[19.994314,50.034848]}},{"type":"Feature","properties":{"name":"Kurdwanów P+R","mode":"tram","text":"10 50 74","n":3,"tip":0},"geometry":{"type":"Point","coordinates":[19.999777,49.999595]}},{"type":"Feature","properties":{"name":"Kurdwanów Południe","mode":"bus","text":"174 179","n":2,"tip":1},"geometry":{"type":"Point","coordinates":[20.00524,49.994307]}},{"type":"Feature","properties":{"name":"Tor Kajakowy","mode":"bus","text":"203","n":1,"tip":0},"geometry":{"type":"Point","coordinates":[19.964267,50.001357]}},{"type":"Feature","properties":{"name":"Golkowice Pętla","mode":"bus","text":"254 G3","n":2,"tip":0},"geometry":{"type":"Point","coordinates":[20.002508,49.973155]}},{"type":"Feature","properties":{"name":"Soboniowice","mode":"bus","text":"107","n":1,"tip":0},"geometry":{"type":"Point","coordinates":[20.010703,49.97668]}},{"type":"Feature","properties":{"name":"Zajezdnia Wola Duchacka","mode":"bus","text":"107 169","n":2,"tip":0},"geometry":{"type":"Point","coordinates":[20.00524,50.006645]}},{"type":"Feature","properties":{"name":"Nowosądecka","mode":"bus","text":"904","n":1,"tip":0},"geometry":{"type":"Point","coordinates":[20.007971,49.999595]}},{"type":"Feature","properties":{"name":"Piaski Wielkie","mode":"bus","text":"169 469","n":2,"tip":0},"geometry":{"type":"Point","coordinates":[20.016166,49.994307]}},{"type":"Feature","properties":{"name":"Piaski Nowe","mode":"bus","text":"164","n":1,"tip":0},"geometry":{"type":"Point","coordinates":[20.013435,50.001357]}},{"type":"Feature","properties":{"name":"Podgórze SKA","mode":"bus","text":"127 155 158 427 497 669","n":6,"tip":0},"geometry":{"type":"Point","coordinates":[20.010703,50.015459]}},{"type":"Feature","properties":{"name":"Miejskie Centrum Opieki","mode":"bus","text":"153 513","n":2,"tip":1},"geometry":{"type":"Point","coordinates":[20.021629,49.997832]}},{"type":"Feature","properties":{"name":"Nowy Bieżanów Południe","mode":"bus","text":"173 234 244 274 284 503","n":6,"tip":0},"geometry":{"type":"Point","coordinates":[20.032555,50.00312]}},{"type":"Feature","properties":{"name":"Zajezdnia Płaszów","mode":"bus","text":"128 148","n":2,"tip":0},"geometry":{"type":"Point","coordinates":[20.035287,50.017221]}},{"type":"Feature","properties":{"name":"Podwierzbie","mode":"bus","text":"158","n":1,"tip":1},"geometry":{"type":"Point","coordinates":[20.070797,50.02956]}},{"type":"Feature","properties":{"name":"Nowy Bieżanów P+R","mode":"bus","text":"669","n":1,"tip":0},"geometry":{"type":"Point","coordinates":[20.035287,50.008408]}},{"type":"Feature","properties":{"name":"Nowy Bieżanów P+R","mode":"tram","text":"3 9 13 49 69","n":5,"tip":0},"geometry":{"type":"Point","coordinates":[20.035287,50.008408]}},{"type":"Feature","properties":{"name":"Mały Płaszów P+R","mode":"bus","text":"123 195 221 264 A58","n":5,"tip":0},"geometry":{"type":"Point","coordinates":[20.029824,50.018984]}},{"type":"Feature","properties":{"name":"Mały Płaszów P+R","mode":"tram","text":"11 20 76","n":3,"tip":0},"geometry":{"type":"Point","coordinates":[20.029824,50.018984]}},{"type":"Feature","properties":{"name":"Bieżanów Potrzask","mode":"bus","text":"153","n":1,"tip":0},"geometry":{"type":"Point","coordinates":[20.05714,50.006645]}},{"type":"Feature","properties":{"name":"Podgórki Tynieckie","mode":"bus","text":"162","n":1,"tip":1},"geometry":{"type":"Point","coordinates":[19.966998,49.989019]}},{"type":"Feature","properties":{"name":"Złocień","mode":"bus","text":"125 605","n":2,"tip":0},"geometry":{"type":"Point","coordinates":[20.059871,50.015459]}},{"type":"Feature","properties":{"name":"Dworzec Główny Zachód","mode":"bus","text":"105 130 132 179 304 405","n":6,"tip":0},"geometry":{"type":"Point","coordinates":[20.013435,50.026035]}},{"type":"Feature","properties":{"name":"Radzikowskiego Osiedle","mode":"bus","text":"140","n":1,"tip":0},"geometry":{"type":"Point","coordinates":[19.994314,50.02956]}},{"type":"Feature","properties":{"name":"Centrum JP II","mode":"bus","text":"224","n":1,"tip":1},"geometry":{"type":"Point","coordinates":[19.994314,49.997832]}},{"type":"Feature","properties":{"name":"Teatr Słowackiego","mode":"bus","text":"605 704","n":2,"tip":0},"geometry":{"type":"Point","coordinates":[20.010703,50.024272]}},{"type":"Feature","properties":{"name":"TAURON Arena Kraków Wieczysta","mode":"bus","text":"124","n":1,"tip":0},"geometry":{"type":"Point","coordinates":[20.027092,50.02956]}},{"type":"Feature","properties":{"name":"TAURON Arena Kraków Wieczysta","mode":"tram","text":"49","n":1,"tip":0},"geometry":{"type":"Point","coordinates":[20.027092,50.02956]}},{"type":"Feature","properties":{"name":"Nowy Kleparz","mode":"bus","text":"120 140 189 301 337","n":5,"tip":0},"geometry":{"type":"Point","coordinates":[20.007971,50.027797]}},{"type":"Feature","properties":{"name":"Prądnik Czerwony P+R","mode":"bus","text":"199 250 260 270 405 610","n":6,"tip":0},"geometry":{"type":"Point","coordinates":[20.029824,50.040136]}},{"type":"Feature","properties":{"name":"Cmentarz Rakowicki","mode":"tram","text":"76","n":1,"tip":0},"geometry":{"type":"Point","coordinates":[20.018898,50.02956]}},{"type":"Feature","properties":{"name":"Ugorek","mode":"bus","text":"424","n":1,"tip":0},"geometry":{"type":"Point","coordinates":[20.032555,50.033085]}},{"type":"Feature","properties":{"name":"Rżąka","mode":"bus","text":"144 195","n":2,"tip":0},"geometry":{"type":"Point","coordinates":[20.024361,49.999595]}},{"type":"Feature","properties":{"name":"Bagry","mode":"bus","text":"127 427","n":2,"tip":1},"geometry":{"type":"Point","coordinates":[20.027092,50.011933]}},{"type":"Feature","properties":{"name":"Cracovia Stadion","mode":"bus","text":"134 307","n":2,"tip":0},"geometry":{"type":"Point","coordinates":[19.997045,50.020747]}},{"type":"Feature","properties":{"name":"Bagry Tężnia","mode":"bus","text":"497","n":1,"tip":1},"geometry":{"type":"Point","coordinates":[20.029824,50.013696]}},{"type":"Feature","properties":{"name":"Bodzów","mode":"bus","text":"176","n":1,"tip":1},"geometry":{"type":"Point","coordinates":[19.975193,50.006645]}},{"type":"Feature","properties":{"name":"Grębałów","mode":"bus","text":"180","n":1,"tip":0},"geometry":{"type":"Point","coordinates":[20.081724,50.045424]}},{"type":"Feature","properties":{"name":"Prądnik Biały Zachód","mode":"bus","text":"513","n":1,"tip":0},"geometry":{"type":"Point","coordinates":[20.007971,50.040136]}},{"type":"Feature","properties":{"name":"Skawina","mode":"bus","text":"223 233 243 245 283 293 903","n":7,"tip":0},"geometry":{"type":"Point","coordinates":[19.961535,49.966104]}},{"type":"Feature","properties":{"name":"Iwanowice Dworskie Pętla","mode":"bus","text":"277","n":1,"tip":0},"geometry":{"type":"Point","coordinates":[20.046213,50.073627]}},{"type":"Feature","properties":{"name":"Jeziorzany Pętla","mode":"bus","text":"219 239 279","n":3,"tip":0},"geometry":{"type":"Point","coordinates":[19.947877,49.97668]}},{"type":"Feature","properties":{"name":"Czernichów Rynek","mode":"bus","text":"249 259 A14","n":3,"tip":0},"geometry":{"type":"Point","coordinates":[19.926025,49.978443]}},{"type":"Feature","properties":{"name":"Czułów Szkoła","mode":"bus","text":"269","n":1,"tip":0},"geometry":{"type":"Point","coordinates":[19.936951,50.008408]}},{"type":"Feature","properties":{"name":"Kraków Airport","mode":"bus","text":"300 902","n":2,"tip":0},"geometry":{"type":"Point","coordinates":[19.956072,50.017221]}},{"type":"Feature","properties":{"name":"Morawica Centrum","mode":"bus","text":"209","n":1,"tip":0},"geometry":{"type":"Point","coordinates":[19.950609,50.013696]}},{"type":"Feature","properties":{"name":"Chrosna Pętla","mode":"bus","text":"228","n":1,"tip":1},"geometry":{"type":"Point","coordinates":[19.939682,50.017221]}},{"type":"Feature","properties":{"name":"Zelków Pętla","mode":"bus","text":"248 948","n":2,"tip":1},"geometry":{"type":"Point","coordinates":[19.977924,50.048949]}},{"type":"Feature","properties":{"name":"Owczary Pętla","mode":"bus","text":"280 337 937","n":3,"tip":0},"geometry":{"type":"Point","coordinates":[20.018898,50.059525]}},{"type":"Feature","properties":{"name":"Trojanowice Pętla","mode":"bus","text":"207","n":1,"tip":1},"geometry":{"type":"Point","coordinates":[20.010703,50.052475]}},{"type":"Feature","properties":{"name":"Górna Wieś Pętla","mode":"bus","text":"227 917","n":2,"tip":0},"geometry":{"type":"Point","coordinates":[20.024361,50.057763]}},{"type":"Feature","properties":{"name":"Narama Remiza","mode":"bus","text":"257","n":1,"tip":1},"geometry":{"type":"Point","coordinates":[20.021629,50.063051]}},{"type":"Feature","properties":{"name":"Młynka Pętla","mode":"bus","text":"238","n":1,"tip":1},"geometry":{"type":"Point","coordinates":[19.936951,50.027797]}},{"type":"Feature","properties":{"name":"Pielgrzymowice Pętla","mode":"bus","text":"260 270","n":2,"tip":0},"geometry":{"type":"Point","coordinates":[20.073529,50.057763]}},{"type":"Feature","properties":{"name":"Zastów Pętla","mode":"bus","text":"250 270","n":2,"tip":0},"geometry":{"type":"Point","coordinates":[20.070797,50.052475]}},{"type":"Feature","properties":{"name":"Zabierzów Młyn","mode":"bus","text":"218 288","n":2,"tip":0},"geometry":{"type":"Point","coordinates":[19.972461,50.036611]}},{"type":"Feature","properties":{"name":"Czulice Kościół","mode":"bus","text":"212 271","n":2,"tip":0},"geometry":{"type":"Point","coordinates":[20.141818,50.052475]}},{"type":"Feature","properties":{"name":"Łososkowice Remiza","mode":"bus","text":"202","n":1,"tip":1},"geometry":{"type":"Point","coordinates":[20.122697,50.070101]}},{"type":"Feature","properties":{"name":"Nielepice Pętla","mode":"bus","text":"258 298","n":2,"tip":1},"geometry":{"type":"Point","coordinates":[19.942414,50.024272]}},{"type":"Feature","properties":{"name":"Brzegi Pętla","mode":"bus","text":"B2 G4","n":2,"tip":0},"geometry":{"type":"Point","coordinates":[20.095381,50.022509]}},{"type":"Feature","properties":{"name":"Świątniki Górne Urząd Miasta i Gminy","mode":"bus","text":"225 915","n":2,"tip":0},"geometry":{"type":"Point","coordinates":[19.999777,49.948477]}},{"type":"Feature","properties":{"name":"Konary Pętla","mode":"bus","text":"265","n":1,"tip":1},"geometry":{"type":"Point","coordinates":[19.988851,49.955528]}},{"type":"Feature","properties":{"name":"Rzeszotary Panciawa Pętla","mode":"bus","text":"215","n":1,"tip":0},"geometry":{"type":"Point","coordinates":[20.021629,49.944952]}},{"type":"Feature","properties":{"name":"Włosań Centrum","mode":"bus","text":"275","n":1,"tip":1},"geometry":{"type":"Point","coordinates":[19.986119,49.937901]}},{"type":"Feature","properties":{"name":"Ujazd Pętla","mode":"bus","text":"230","n":1,"tip":0},"geometry":{"type":"Point","coordinates":[19.977924,50.043661]}},{"type":"Feature","properties":{"name":"Karniowice Pętla","mode":"bus","text":"268","n":1,"tip":1},"geometry":{"type":"Point","coordinates":[19.96973,50.047187]}},{"type":"Feature","properties":{"name":"Buków Pętla","mode":"bus","text":"245","n":1,"tip":0},"geometry":{"type":"Point","coordinates":[19.961535,49.960816]}},{"type":"Feature","properties":{"name":"Ochojno Remiza","mode":"bus","text":"285","n":1,"tip":1},"geometry":{"type":"Point","coordinates":[20.00524,49.960816]}},{"type":"Feature","properties":{"name":"Wieliczka Kampus","mode":"bus","text":"204 224 244 304 904","n":5,"tip":0},"geometry":{"type":"Point","coordinates":[20.068066,49.992544]}},{"type":"Feature","properties":{"name":"Wołowice Kapliczka","mode":"bus","text":"239 279","n":2,"tip":0},"geometry":{"type":"Point","coordinates":[19.939682,49.97668]}},{"type":"Feature","properties":{"name":"Skawina Podgórki","mode":"bus","text":"203","n":1,"tip":0},"geometry":{"type":"Point","coordinates":[19.958803,49.985493]}},{"type":"Feature","properties":{"name":"Będkowice Pętla","mode":"bus","text":"310 910","n":2,"tip":1},"geometry":{"type":"Point","coordinates":[19.964267,50.050712]}},{"type":"Feature","properties":{"name":"Rudawa Rynek","mode":"bus","text":"918","n":1,"tip":0},"geometry":{"type":"Point","coordinates":[19.945146,50.033085]}},{"type":"Feature","properties":{"name":"Radwanowice Pętla","mode":"bus","text":"278","n":1,"tip":1},"geometry":{"type":"Point","coordinates":[19.945146,50.040136]}},{"type":"Feature","properties":{"name":"Biały Kościół Murownia Pętla","mode":"bus","text":"310","n":1,"tip":1},"geometry":{"type":"Point","coordinates":[19.983387,50.056]}},{"type":"Feature","properties":{"name":"Boleń Pętla","mode":"bus","text":"297","n":1,"tip":1},"geometry":{"type":"Point","coordinates":[20.04075,50.050712]}},{"type":"Feature","properties":{"name":"Węgrzce Pętla","mode":"bus","text":"217","n":1,"tip":1},"geometry":{"type":"Point","coordinates":[20.038019,50.052475]}},{"type":"Feature","properties":{"name":"Grabówki Pętla","mode":"bus","text":"214","n":1,"tip":0},"geometry":{"type":"Point","coordinates":[20.016166,49.973155]}},{"type":"Feature","properties":{"name":"Skawina Sąsiedzka Pętla","mode":"bus","text":"235","n":1,"tip":1},"geometry":{"type":"Point","coordinates":[19.947877,49.967867]}},{"type":"Feature","properties":{"name":"Brzeźnica Dworzec","mode":"bus","text":"223","n":1,"tip":1},"geometry":{"type":"Point","coordinates":[19.91783,49.969629]}},{"type":"Feature","properties":{"name":"Ochodza Dwór","mode":"bus","text":"235","n":1,"tip":0},"geometry":{"type":"Point","coordinates":[19.939682,49.969629]}},{"type":"Feature","properties":{"name":"Wola Radziszowska Pętla","mode":"bus","text":"253","n":1,"tip":1},"geometry":{"type":"Point","coordinates":[19.947877,49.941427]}},{"type":"Feature","properties":{"name":"Skawina SCK","mode":"bus","text":"203 273 295 A43 A53","n":5,"tip":0},"geometry":{"type":"Point","coordinates":[19.956072,49.971392]}},{"type":"Feature","properties":{"name":"Ochodza Odwiśle","mode":"bus","text":"235","n":1,"tip":1},"geometry":{"type":"Point","coordinates":[19.939682,49.973155]}},{"type":"Feature","properties":{"name":"Węgrzce Wielkie Pętla","mode":"bus","text":"234 W2 Z1","n":3,"tip":0},"geometry":{"type":"Point","coordinates":[20.117234,50.015459]}},{"type":"Feature","properties":{"name":"Giebułtów Morgi","mode":"bus","text":"220","n":1,"tip":1},"geometry":{"type":"Point","coordinates":[19.997045,50.052475]}},{"type":"Feature","properties":{"name":"Kamień Szkoła","mode":"bus","text":"229","n":1,"tip":0},"geometry":{"type":"Point","coordinates":[19.906904,49.989019]}},{"type":"Feature","properties":{"name":"Dąbrowa Szlachecka Krzemiennik","mode":"bus","text":"279","n":1,"tip":0},"geometry":{"type":"Point","coordinates":[19.939682,49.987256]}},{"type":"Feature","properties":{"name":"Krzysztoforzyce Pętla","mode":"bus","text":"242","n":1,"tip":1},"geometry":{"type":"Point","coordinates":[20.119965,50.050712]}},{"type":"Feature","properties":{"name":"Kocmyrzów-Luborzyca Urząd Gminy","mode":"bus","text":"272","n":1,"tip":0},"geometry":{"type":"Point","coordinates":[20.103576,50.056]}},{"type":"Feature","properties":{"name":"Mników Skały","mode":"bus","text":"209","n":1,"tip":0},"geometry":{"type":"Point","coordinates":[19.934219,50.011933]}},{"type":"Feature","properties":{"name":"Rybna Dolna","mode":"bus","text":"269","n":1,"tip":0},"geometry":{"type":"Point","coordinates":[19.91783,49.999595]}},{"type":"Feature","properties":{"name":"Czułówek Kapliczka","mode":"bus","text":"269","n":1,"tip":1},"geometry":{"type":"Point","coordinates":[19.934219,49.997832]}},{"type":"Feature","properties":{"name":"Grabie Pętla","mode":"bus","text":"295","n":1,"tip":0},"geometry":{"type":"Point","coordinates":[19.936951,49.952003]}},{"type":"Feature","properties":{"name":"Niepołomice Dworzec","mode":"bus","text":"221 301 A18","n":3,"tip":0},"geometry":{"type":"Point","coordinates":[20.174597,50.015459]}},{"type":"Feature","properties":{"name":"Chobot Leśniczówka","mode":"bus","text":"211","n":1,"tip":0},"geometry":{"type":"Point","coordinates":[20.21557,50.022509]}},{"type":"Feature","properties":{"name":"Grabie Kościół","mode":"bus","text":"264","n":1,"tip":0},"geometry":{"type":"Point","coordinates":[20.130892,50.024272]}},{"type":"Feature","properties":{"name":"Słomniki Osiedle","mode":"bus","text":"222","n":1,"tip":1},"geometry":{"type":"Point","coordinates":[20.09265,50.080677]}},{"type":"Feature","properties":{"name":"Zielonki Marszowiec Pętla","mode":"bus","text":"247 317","n":2,"tip":0},"geometry":{"type":"Point","coordinates":[20.016166,50.048949]}},{"type":"Feature","properties":{"name":"Wieliczka Centrum","mode":"bus","text":"284 A16 A17 A19 A2 A58 A59 A6 A8 A9 B2 D2 G3 G4 J1 L1 P2 R2 W2 Z1","n":20,"tip":0},"geometry":{"type":"Point","coordinates":[20.046213,49.990781]}},{"type":"Feature","properties":{"name":"Lednica Górna Świdówka","mode":"bus","text":"L1","n":1,"tip":0},"geometry":{"type":"Point","coordinates":[20.084455,49.980205]}},{"type":"Feature","properties":{"name":"Trąbki P+R","mode":"bus","text":"274","n":1,"tip":1},"geometry":{"type":"Point","coordinates":[20.152744,49.957291]}},{"type":"Feature","properties":{"name":"Pękowice Ojcowska","mode":"bus","text":"240 290","n":2,"tip":1},"geometry":{"type":"Point","coordinates":[19.999777,50.047187]}},{"type":"Feature","properties":{"name":"Polanka Hallera Centrum","mode":"bus","text":"273","n":1,"tip":1},"geometry":{"type":"Point","coordinates":[19.945146,49.952003]}},{"type":"Feature","properties":{"name":"Ojców Zamek","mode":"bus","text":"LR0","n":1,"tip":1},"geometry":{"type":"Point","coordinates":[19.991582,50.064813]}},{"type":"Feature","properties":{"name":"Podstolice Centrum","mode":"bus","text":"214 P2","n":2,"tip":0},"geometry":{"type":"Point","coordinates":[20.016166,49.962579]}},{"type":"Feature","properties":{"name":"Michałowice P+R","mode":"bus","text":"307","n":1,"tip":1},"geometry":{"type":"Point","coordinates":[20.038019,50.057763]}},{"type":"Feature","properties":{"name":"Rawałowice Kapliczka","mode":"bus","text":"262","n":1,"tip":1},"geometry":{"type":"Point","coordinates":[20.122697,50.064813]}},{"type":"Feature","properties":{"name":"Skała Rynek","mode":"bus","text":"267","n":1,"tip":0},"geometry":{"type":"Point","coordinates":[19.999777,50.071864]}},{"type":"Feature","properties":{"name":"Przeginia Kościół","mode":"bus","text":"200","n":1,"tip":1},"geometry":{"type":"Point","coordinates":[19.947877,50.057763]}},{"type":"Feature","properties":{"name":"Mogilany Pętla","mode":"bus","text":"255","n":1,"tip":0},"geometry":{"type":"Point","coordinates":[19.96973,49.955528]}},{"type":"Feature","properties":{"name":"Wilków Pętla","mode":"bus","text":"232","n":1,"tip":1},"geometry":{"type":"Point","coordinates":[20.103576,50.068339]}},{"type":"Feature","properties":{"name":"Modlniczka Centrum Logistyczne","mode":"bus","text":"210","n":1,"tip":1},"geometry":{"type":"Point","coordinates":[19.983387,50.040136]}},{"type":"Feature","properties":{"name":"Dworzec Towarowy","mode":"tram","text":"17 20","n":2,"tip":0},"geometry":{"type":"Point","coordinates":[20.010703,50.02956]}},{"type":"Feature","properties":{"name":"Bardosa","mode":"tram","text":"16","n":1,"tip":0},"geometry":{"type":"Point","coordinates":[20.07626,50.034848]}},{"type":"Feature","properties":{"name":"Kopiec Wandy","mode":"tram","text":"21 22 75","n":3,"tip":0},"geometry":{"type":"Point","coordinates":[20.078992,50.036611]}},{"type":"Feature","properties":{"name":"Alwernia Zakłady Chemiczne","mode":"bus","text":"A44 A64 A66","n":3,"tip":0},"geometry":{"type":"Point","coordinates":[19.898709,49.997832]}},{"type":"Feature","properties":{"name":"Alwernia Zakłady Chemiczne","mode":"bus","text":"A60","n":1,"tip":1},"geometry":{"type":"Point","coordinates":[19.898709,49.999595]}},{"type":"Feature","properties":{"name":"Alwernia Zakłady Chemiczne","mode":"bus","text":"A60","n":1,"tip":1},"geometry":{"type":"Point","coordinates":[19.898709,49.996069]}},{"type":"Feature","properties":{"name":"Andrychów Dworzec Autobusowy","mode":"bus","text":"A25 A47","n":2,"tip":0},"geometry":{"type":"Point","coordinates":[19.876857,49.936139]}},{"type":"Feature","properties":{"name":"Biadoliny Szlacheckie","mode":"bus","text":"A26","n":1,"tip":0},"geometry":{"type":"Point","coordinates":[20.30298,49.981968]}},{"type":"Feature","properties":{"name":"Biadoliny Szlacheckie","mode":"bus","text":"A26","n":1,"tip":0},"geometry":{"type":"Point","coordinates":[20.30298,49.978443]}},{"type":"Feature","properties":{"name":"Bochnia Dworzec PKP","mode":"bus","text":"A20 A3 A4 A65","n":4,"tip":0},"geometry":{"type":"Point","coordinates":[20.25108,49.97668]}},{"type":"Feature","properties":{"name":"Bochnia Dworzec PKP","mode":"bus","text":"A20 A3 A4 A65","n":4,"tip":0},"geometry":{"type":"Point","coordinates":[20.242886,49.971392]}},{"type":"Feature","properties":{"name":"Bochnia pl. Gen. Kazimierza Pułaskiego","mode":"bus","text":"A26","n":1,"tip":0},"geometry":{"type":"Point","coordinates":[20.25108,49.973155]}},{"type":"Feature","properties":{"name":"Bochnia pl. Gen. Kazimierza Pułaskiego","mode":"bus","text":"A26","n":1,"tip":0},"geometry":{"type":"Point","coordinates":[20.242886,49.967867]}},{"type":"Feature","properties":{"name":"Brzesko Dworzec Autobusowy","mode":"bus","text":"A5","n":1,"tip":1},"geometry":{"type":"Point","coordinates":[20.289322,49.967867]}},{"type":"Feature","properties":{"name":"Bukowina Tatrzańska Klin","mode":"bus","text":"A32","n":1,"tip":0},"geometry":{"type":"Point","coordinates":[20.095381,49.802176]}},{"type":"Feature","properties":{"name":"Bukowina Tatrzańska Klin","mode":"bus","text":"A32","n":1,"tip":1},"geometry":{"type":"Point","coordinates":[20.098113,49.798651]}},{"type":"Feature","properties":{"name":"Chochołów Chochołowskie Termy","mode":"bus","text":"A15","n":1,"tip":0},"geometry":{"type":"Point","coordinates":[20.024361,49.807464]}},{"type":"Feature","properties":{"name":"Chrzanów Szpital","mode":"bus","text":"A42 A48","n":2,"tip":1},"geometry":{"type":"Point","coordinates":[19.887783,50.022509]}},{"type":"Feature","properties":{"name":"Chrzanów Szpital","mode":"bus","text":"A42","n":1,"tip":1},"geometry":{"type":"Point","coordinates":[19.885051,50.024272]}},{"type":"Feature","properties":{"name":"Czułów/Sanka Głuchówki","mode":"bus","text":"A60","n":1,"tip":0},"geometry":{"type":"Point","coordinates":[19.915098,50.008408]}},{"type":"Feature","properties":{"name":"Dąbrowa Tarnowska Szpitalna","mode":"bus","text":"A36","n":1,"tip":0},"geometry":{"type":"Point","coordinates":[20.335759,50.027797]}},{"type":"Feature","properties":{"name":"Dąbrowica Szkoła","mode":"bus","text":"A59","n":1,"tip":1},"geometry":{"type":"Point","coordinates":[20.231959,49.953765]}},{"type":"Feature","properties":{"name":"Dąbrowica Szkoła","mode":"bus","text":"A59","n":1,"tip":1},"geometry":{"type":"Point","coordinates":[20.226496,49.955528]}},{"type":"Feature","properties":{"name":"Dobczyce Witosa (pętla)","mode":"bus","text":"A17 A49 A8","n":3,"tip":0},"geometry":{"type":"Point","coordinates":[20.098113,49.907936]}},{"type":"Feature","properties":{"name":"Dobczyce Witosa (pętla)","mode":"bus","text":"A17 A49 A8","n":3,"tip":0},"geometry":{"type":"Point","coordinates":[20.095381,49.906173]}},{"type":"Feature","properties":{"name":"Dobranowice Szkoła","mode":"bus","text":"D2","n":1,"tip":0},"geometry":{"type":"Point","coordinates":[20.119965,49.937901]}},{"type":"Feature","properties":{"name":"Dursztyn Kościół","mode":"bus","text":"A33","n":1,"tip":1},"geometry":{"type":"Point","coordinates":[20.125429,49.819803]}},{"type":"Feature","properties":{"name":"Dursztyn Kościół","mode":"bus","text":"A33","n":1,"tip":1},"geometry":{"type":"Point","coordinates":[20.119965,49.812752]}},{"type":"Feature","properties":{"name":"Harbutowice Końcówka","mode":"bus","text":"A53","n":1,"tip":0},"geometry":{"type":"Point","coordinates":[19.95334,49.902648]}},{"type":"Feature","properties":{"name":"Iwkowa Nagórze Pętla","mode":"bus","text":"A20","n":1,"tip":0},"geometry":{"type":"Point","coordinates":[20.262006,49.918512]}},{"type":"Feature","properties":{"name":"Jaworki Czarna Woda","mode":"bus","text":"A33","n":1,"tip":1},"geometry":{"type":"Point","coordinates":[20.218302,49.821565]}},{"type":"Feature","properties":{"name":"Jodłówka - Wałki - Dół","mode":"bus","text":"A34 A35","n":2,"tip":0},"geometry":{"type":"Point","coordinates":[20.354879,49.997832]}},{"type":"Feature","properties":{"name":"Kalwaria Zebrzydowska D.A.","mode":"bus","text":"A43","n":1,"tip":0},"geometry":{"type":"Point","coordinates":[19.934219,49.929088]}},{"type":"Feature","properties":{"name":"Kęty Grupa Kęty","mode":"bus","text":"A40","n":1,"tip":1},"geometry":{"type":"Point","coordinates":[19.852273,49.939664]}},{"type":"Feature","properties":{"name":"Kęty Grupa Kęty","mode":"bus","text":"A40","n":1,"tip":1},"geometry":{"type":"Point","coordinates":[19.855004,49.941427]}},{"type":"Feature","properties":{"name":"Kokotów P+R","mode":"bus","text":"A58","n":1,"tip":0},"geometry":{"type":"Point","coordinates":[20.073529,50.017221]}},{"type":"Feature","properties":{"name":"Koszyce","mode":"bus","text":"A5 A57","n":2,"tip":1},"geometry":{"type":"Point","coordinates":[20.26747,50.043661]}},{"type":"Feature","properties":{"name":"Koszyce","mode":"bus","text":"A5 A57","n":2,"tip":1},"geometry":{"type":"Point","coordinates":[20.262006,50.041899]}},{"type":"Feature","properties":{"name":"Kraków MDA","mode":"bus","text":"A1 A12 A13 A14 A40 A44 A56 A64","n":8,"tip":0},"geometry":{"type":"Point","coordinates":[20.016166,50.027797]}},{"type":"Feature","properties":{"name":"Krzeszowice Dworzec PKP","mode":"bus","text":"A10 A42","n":2,"tip":1},"geometry":{"type":"Point","coordinates":[19.926025,50.027797]}},{"type":"Feature","properties":{"name":"Lanckorona Centrum","mode":"bus","text":"A56","n":1,"tip":0},"geometry":{"type":"Point","coordinates":[19.942414,49.918512]}},{"type":"Feature","properties":{"name":"Lichwin - Centrum","mode":"bus","text":"A35","n":1,"tip":1},"geometry":{"type":"Point","coordinates":[20.327564,49.953765]}},{"type":"Feature","properties":{"name":"Lichwin - Centrum","mode":"bus","text":"A35","n":1,"tip":1},"geometry":{"type":"Point","coordinates":[20.335759,49.948477]}},{"type":"Feature","properties":{"name":"Limanowa Zygmunta Augusta","mode":"bus","text":"A3 A9","n":2,"tip":1},"geometry":{"type":"Point","coordinates":[20.210107,49.87092]}},{"type":"Feature","properties":{"name":"Limanowa Zygmunta Augusta","mode":"bus","text":"A3 A9","n":2,"tip":1},"geometry":{"type":"Point","coordinates":[20.210107,49.872683]}},{"type":"Feature","properties":{"name":"Lisia Góra Szkoła","mode":"bus","text":"A24","n":1,"tip":0},"geometry":{"type":"Point","coordinates":[20.354879,50.001357]}},{"type":"Feature","properties":{"name":"Lubcza Centrum","mode":"bus","text":"A46 A62","n":2,"tip":0},"geometry":{"type":"Point","coordinates":[20.376732,49.957291]}},{"type":"Feature","properties":{"name":"Łapanów Rynek","mode":"bus","text":"A6","n":1,"tip":1},"geometry":{"type":"Point","coordinates":[20.199181,49.916749]}},{"type":"Feature","properties":{"name":"Łapanów Rynek","mode":"bus","text":"A6","n":1,"tip":1},"geometry":{"type":"Point","coordinates":[20.193717,49.914987]}},{"type":"Feature","properties":{"name":"Mszana Dolna Dworzec Autobusowy","mode":"bus","text":"A41","n":1,"tip":0},"geometry":{"type":"Point","coordinates":[20.087187,49.856819]}},{"type":"Feature","properties":{"name":"Myślenice D.A.","mode":"bus","text":"A1 A11 A16 A2 A41","n":5,"tip":0},"geometry":{"type":"Point","coordinates":[20.021629,49.895597]}},{"type":"Feature","properties":{"name":"Nowa Jastrząbka - Podlesie","mode":"bus","text":"A38","n":1,"tip":0},"geometry":{"type":"Point","coordinates":[20.368537,50.010171]}},{"type":"Feature","properties":{"name":"Nowe Brzesko Rynek","mode":"bus","text":"A4 A65 A7","n":3,"tip":0},"geometry":{"type":"Point","coordinates":[20.21557,50.040136]}},{"type":"Feature","properties":{"name":"Nowy Sącz MDA","mode":"bus","text":"A21 A22","n":2,"tip":0},"geometry":{"type":"Point","coordinates":[20.270201,49.87092]}},{"type":"Feature","properties":{"name":"Nowy Targ Dworzec Kolejowy","mode":"bus","text":"A15 A21 A45","n":3,"tip":0},"geometry":{"type":"Point","coordinates":[20.062603,49.819803]}},{"type":"Feature","properties":{"name":"Obidowa Pętla","mode":"bus","text":"A61 A71","n":2,"tip":0},"geometry":{"type":"Point","coordinates":[20.070797,49.832141]}},{"type":"Feature","properties":{"name":"Ochotnica Dolna Jagiełły","mode":"bus","text":"A21","n":1,"tip":0},"geometry":{"type":"Point","coordinates":[20.16367,49.840955]}},{"type":"Feature","properties":{"name":"Ochotnica Dolna Młynne Urząd Gminy","mode":"bus","text":"A21","n":1,"tip":0},"geometry":{"type":"Point","coordinates":[20.158207,49.832141]}},{"type":"Feature","properties":{"name":"Ochotnica Dolna Młynne Urząd Gminy","mode":"bus","text":"A21","n":1,"tip":0},"geometry":{"type":"Point","coordinates":[20.166402,49.833904]}},{"type":"Feature","properties":{"name":"Olkusz Dworzec PKP","mode":"bus","text":"A12 A13","n":2,"tip":1},"geometry":{"type":"Point","coordinates":[19.931488,50.066576]}},{"type":"Feature","properties":{"name":"Olkusz Dworzec PKS","mode":"bus","text":"A10 A48","n":2,"tip":1},"geometry":{"type":"Point","coordinates":[19.934219,50.064813]}},{"type":"Feature","properties":{"name":"Olszowice Pętla","mode":"bus","text":"A19","n":1,"tip":0},"geometry":{"type":"Point","coordinates":[19.994314,49.936139]}},{"type":"Feature","properties":{"name":"Oświęcim Dworzec PKP","mode":"bus","text":"A66","n":1,"tip":0},"geometry":{"type":"Point","coordinates":[19.849541,49.989019]}},{"type":"Feature","properties":{"name":"Oświęcim Lodowisko","mode":"bus","text":"A47","n":1,"tip":1},"geometry":{"type":"Point","coordinates":[19.855004,49.990781]}},{"type":"Feature","properties":{"name":"Oświęcim Lodowisko","mode":"bus","text":"A47","n":1,"tip":1},"geometry":{"type":"Point","coordinates":[19.860467,49.987256]}},{"type":"Feature","properties":{"name":"Podłęże P+R Północ","mode":"bus","text":"A37 A7","n":2,"tip":0},"geometry":{"type":"Point","coordinates":[20.155476,50.010171]}},{"type":"Feature","properties":{"name":"Pogorzany Diabli Kamień","mode":"bus","text":"A8","n":1,"tip":1},"geometry":{"type":"Point","coordinates":[20.133623,49.886784]}},{"type":"Feature","properties":{"name":"Pogorzany Diabli Kamień","mode":"bus","text":"A8","n":1,"tip":1},"geometry":{"type":"Point","coordinates":[20.130892,49.885021]}},{"type":"Feature","properties":{"name":"Poprad AS","mode":"bus","text":"A15 A45","n":2,"tip":0},"geometry":{"type":"Point","coordinates":[20.139086,49.770448]}},{"type":"Feature","properties":{"name":"Poręba Wielka Koninki Ośrodek Narciarski","mode":"bus","text":"A11","n":1,"tip":0},"geometry":{"type":"Point","coordinates":[20.089918,49.840955]}},{"type":"Feature","properties":{"name":"Proszowice P+R Kościuszki","mode":"bus","text":"A37 A50 A7","n":3,"tip":0},"geometry":{"type":"Point","coordinates":[20.169133,50.064813]}},{"type":"Feature","properties":{"name":"Proszowice P+R Kościuszki","mode":"bus","text":"A50 A7","n":2,"tip":1},"geometry":{"type":"Point","coordinates":[20.169133,50.063051]}},{"type":"Feature","properties":{"name":"Radłów Plac Kościuszki","mode":"bus","text":"A54","n":1,"tip":0},"geometry":{"type":"Point","coordinates":[20.319369,50.004883]}},{"type":"Feature","properties":{"name":"Ryglice Węzeł Przesiadkowy","mode":"bus","text":"A63","n":1,"tip":0},"geometry":{"type":"Point","coordinates":[20.360343,49.948477]}},{"type":"Feature","properties":{"name":"Siedlec Centrum","mode":"bus","text":"A18","n":1,"tip":0},"geometry":{"type":"Point","coordinates":[20.221033,49.967867]}},{"type":"Feature","properties":{"name":"Smolice Lipowa","mode":"bus","text":"A25","n":1,"tip":1},"geometry":{"type":"Point","coordinates":[19.893246,49.989019]}},{"type":"Feature","properties":{"name":"Smolice Lipowa","mode":"bus","text":"A25","n":1,"tip":1},"geometry":{"type":"Point","coordinates":[19.895978,49.987256]}},{"type":"Feature","properties":{"name":"Spytkowice Szkoła","mode":"bus","text":"A32","n":1,"tip":1},"geometry":{"type":"Point","coordinates":[19.999777,49.848005]}},{"type":"Feature","properties":{"name":"Spytkowice Szkoła","mode":"bus","text":"A32","n":1,"tip":1},"geometry":{"type":"Point","coordinates":[19.997045,49.84448]}},{"type":"Feature","properties":{"name":"Szczepanowice - Zatoka","mode":"bus","text":"A31","n":1,"tip":0},"geometry":{"type":"Point","coordinates":[20.324832,49.960816]}},{"type":"Feature","properties":{"name":"Świebodzin - Kłokowa PKP","mode":"bus","text":"A31","n":1,"tip":0},"geometry":{"type":"Point","coordinates":[20.33849,49.964341]}},{"type":"Feature","properties":{"name":"Tarnów Dworzec Autobusowy","mode":"bus","text":"A22 A23 A28 A34 A36 A38 A39 A46 A55 A62 A63","n":11,"tip":0},"geometry":{"type":"Point","coordinates":[20.33849,49.981968]}},{"type":"Feature","properties":{"name":"Tarnów Krakowska – Planty","mode":"bus","text":"A26 A51 A52 A54","n":4,"tip":0},"geometry":{"type":"Point","coordinates":[20.33849,49.980205]}},{"type":"Feature","properties":{"name":"Tarnów Marszałka","mode":"bus","text":"A29 A30","n":2,"tip":0},"geometry":{"type":"Point","coordinates":[20.341222,49.990781]}},{"type":"Feature","properties":{"name":"Tarnów Mościce - Plac","mode":"bus","text":"A24 A27","n":2,"tip":0},"geometry":{"type":"Point","coordinates":[20.333027,49.983731]}},{"type":"Feature","properties":{"name":"Tarnów Sikorskiego","mode":"bus","text":"A26 A51 A52 A54","n":4,"tip":0},"geometry":{"type":"Point","coordinates":[20.33849,49.983731]}},{"type":"Feature","properties":{"name":"Wysowa Zdrój Sanatorium Beskid","mode":"bus","text":"A23","n":1,"tip":1},"geometry":{"type":"Point","coordinates":[20.341222,49.853293]}},{"type":"Feature","properties":{"name":"Wysowa Zdrój Sanatorium Beskid","mode":"bus","text":"A23","n":1,"tip":1},"geometry":{"type":"Point","coordinates":[20.335759,49.851531]}},{"type":"Feature","properties":{"name":"Wytrzyszczka","mode":"bus","text":"A55","n":1,"tip":1},"geometry":{"type":"Point","coordinates":[20.278396,49.916749]}},{"type":"Feature","properties":{"name":"Wytrzyszczka","mode":"bus","text":"A55","n":1,"tip":1},"geometry":{"type":"Point","coordinates":[20.283859,49.914987]}},{"type":"Feature","properties":{"name":"Zaczarnie - Pętla","mode":"bus","text":"A39","n":1,"tip":0},"geometry":{"type":"Point","coordinates":[20.352148,49.994307]}},{"type":"Feature","properties":{"name":"Zawada - Pętla","mode":"bus","text":"A27","n":1,"tip":0},"geometry":{"type":"Point","coordinates":[20.346685,49.971392]}},{"type":"Feature","properties":{"name":"Zawoja Policzne","mode":"bus","text":"A53","n":1,"tip":1},"geometry":{"type":"Point","coordinates":[19.931488,49.867395]}},{"type":"Feature","properties":{"name":"Zawoja Policzne","mode":"bus","text":"A53","n":1,"tip":1},"geometry":{"type":"Point","coordinates":[19.934219,49.863869]}},{"type":"Feature","properties":{"name":"Jankówka Skrzyżowanie","mode":"bus","text":"R2","n":1,"tip":1},"geometry":{"type":"Point","coordinates":[20.062603,49.929088]}},{"type":"Feature","properties":{"name":"Jankówka Skrzyżowanie","mode":"bus","text":"R2","n":1,"tip":1},"geometry":{"type":"Point","coordinates":[20.065334,49.927325]}},{"type":"Feature","properties":{"name":"Janowice Szkoła","mode":"bus","text":"J1","n":1,"tip":1},"geometry":{"type":"Point","coordinates":[20.024361,49.955528]}},{"type":"Feature","properties":{"name":"Janowice Szkoła","mode":"bus","text":"J1","n":1,"tip":1},"geometry":{"type":"Point","coordinates":[20.021629,49.957291]}}]}