{"type":"FeatureCollection","features":[{"type":"Feature","properties":{"id":"c5","lines":"18 50 69 75","n":4,"bus":1},"geometry":{"type":"LineString","coordinates":[[20.007971,50.034848],[20.010703,50.036611],[20.010703,50.038373]]}},{"type":"Feature","properties":{"id":"c6","lines":"3 5 18 50 69 75","n":6,"bus":1},"geometry":{"type":"LineString","coordinates":[[20.007971,50.034848],[20.007971,50.031323]]}},{"type":"Feature","properties":{"id":"c27","lines":"8 14","n":2,"bus":1},"geometry":{"type":"LineString","coordinates":[[19.991582,50.020747],[19.994314,50.020747]]}},{"type":"Feature","properties":{"id":"c48","lines":"8 14","n":2,"bus":0},"geometry":{"type":"LineString","coordinates":[[19.994314,50.020747],[19.999777,50.020747]]}},{"type":"Feature","properties":{"id":"c72","lines":"11 17 18 52 62","n":5,"bus":1},"geometry":{"type":"LineString","coordinates":[[19.977924,49.997832],[19.991582,50.006645]]}},{"type":"Feature","properties":{"id":"c75","lines":"21 52","n":2,"bus":1},"geometry":{"type":"LineString","coordinates":[[20.048945,50.045424],[20.046213,50.043661]]}},{"type":"Feature","properties":{"id":"c105","lines":"3 69","n":2,"bus":1},"geometry":{"type":"LineString","coordinates":[[20.010703,50.027797],[20.013435,50.026035]]}},{"type":"Feature","properties":{"id":"c107","lines":"5 17 50","n":3,"bus":1},"geometry":{"type":"LineString","coordinates":[[20.010703,50.027797],[20.013435,50.027797]]}},{"type":"Feature","properties":{"id":"c111","lines":"3 5 17 50 69","n":5,"bus":0},"geometry":{"type":"LineString","coordinates":[[20.010703,50.027797],[20.010703,50.02956]]}},{"type":"Feature","properties":{"id":"c112","lines":"3 69","n":2,"bus":1},"geometry":{"type":"LineString","coordinates":[[20.013435,50.026035],[20.010703,50.024272]]}},{"type":"Feature","properties":{"id":"c134","lines":"11 50 74","n":3,"bus":1},"geometry":{"type":"LineString","coordinates":[[20.007971,49.999595],[19.999777,49.999595]]}},{"type":"Feature","properties":{"id":"c135","lines":"11 50 74","n":3,"bus":1},"geometry":{"type":"LineString","coordinates":[[20.007971,49.999595],[20.010703,50.001357],[20.013435,50.001357]]}},{"type":"Feature","properties":{"id":"c137","lines":"10 21","n":2,"bus":1},"geometry":{"type":"LineString","coordinates":[[20.109039,50.038373],[20.103576,50.034848],[20.089918,50.034848]]}},{"type":"Feature","properties":{"id":"c162","lines":"18 22 52 62","n":4,"bus":1},"geometry":{"type":"LineString","coordinates":[[19.997045,50.015459],[19.999777,50.015459]]}},{"type":"Feature","properties":{"id":"c163","lines":"18 22 52 62","n":4,"bus":1},"geometry":{"type":"LineString","coordinates":[[19.997045,50.015459],[19.994314,50.013696]]}},{"type":"Feature","properties":{"id":"c170","lines":"18 22 52 62","n":4,"bus":0},"geometry":{"type":"LineString","coordinates":[[19.999777,50.015459],[20.002508,50.017221],[20.007971,50.017221]]}},{"type":"Feature","properties":{"id":"c172","lines":"3 5 18 50 69 75","n":6,"bus":1},"geometry":{"type":"LineString","coordinates":[[20.007971,50.02956],[20.007971,50.031323]]}},{"type":"Feature","properties":{"id":"c173","lines":"3 5 18 50 69 75","n":6,"bus":0},"geometry":{"type":"LineString","coordinates":[[20.007971,50.02956],[20.010703,50.02956]]}},{"type":"Feature","properties":{"id":"c176","lines":"18 20 75","n":3,"bus":1},"geometry":{"type":"LineString","coordinates":[[20.007971,50.027797],[20.007971,50.024272]]}},{"type":"Feature","properties":{"id":"c177","lines":"18 20 75","n":3,"bus":0},"geometry":{"type":"LineString","coordinates":[[20.007971,50.027797],[20.010703,50.02956]]}},{"type":"Feature","properties":{"id":"c208","lines":"18 50 69 75","n":4,"bus":1},"geometry":{"type":"LineString","coordinates":[[20.010703,50.038373],[20.016166,50.038373]]}},{"type":"Feature","properties":{"id":"c225","lines":"8 22 50","n":3,"bus":0},"geometry":{"type":"LineString","coordinates":[[19.991582,49.996069],[19.991582,49.999595]]}},{"type":"Feature","properties":{"id":"c231","lines":"1 5 74","n":3,"bus":1},"geometry":{"type":"LineString","coordinates":[[20.07626,50.045424],[20.073529,50.043661]]}},{"type":"Feature","properties":{"id":"c237","lines":"1 5 74","n":3,"bus":0},"geometry":{"type":"LineString","coordinates":[[20.073529,50.043661],[20.070797,50.041899]]}},{"type":"Feature","properties":{"id":"c250","lines":"1 5","n":2,"bus":1},"geometry":{"type":"LineString","coordinates":[[20.065334,50.041899],[20.062603,50.040136],[20.05714,50.040136]]}},{"type":"Feature","properties":{"id":"c251","lines":"1 5","n":2,"bus":1},"geometry":{"type":"LineString","coordinates":[[20.065334,50.041899],[20.070797,50.041899]]}},{"type":"Feature","properties":{"id":"c253","lines":"1 5","n":2,"bus":1},"geometry":{"type":"LineString","coordinates":[[20.05714,50.040136],[20.051676,50.036611]]}},{"type":"Feature","properties":{"id":"c257","lines":"16 21","n":2,"bus":1},"geometry":{"type":"LineString","coordinates":[[20.051676,50.036611],[20.054408,50.036611]]}},{"type":"Feature","properties":{"id":"c258","lines":"9 14 16 21 52","n":5,"bus":1},"geometry":{"type":"LineString","coordinates":[[20.051676,50.036611],[20.048945,50.038373]]}},{"type":"Feature","properties":{"id":"c260","lines":"1 5 9 14 52","n":5,"bus":1},"geometry":{"type":"LineString","coordinates":[[20.051676,50.036611],[20.046213,50.033085]]}},{"type":"Feature","properties":{"id":"c262","lines":"16 21","n":2,"bus":1},"geometry":{"type":"LineString","coordinates":[[20.054408,50.036611],[20.05714,50.034848]]}},{"type":"Feature","properties":{"id":"c265","lines":"14 16","n":2,"bus":1},"geometry":{"type":"LineString","coordinates":[[20.038019,50.041899],[20.04075,50.041899]]}},{"type":"Feature","properties":{"id":"c268","lines":"14 16","n":2,"bus":1},"geometry":{"type":"LineString","coordinates":[[20.04075,50.041899],[20.043482,50.041899]]}},{"type":"Feature","properties":{"id":"c279","lines":"14 16 21 52","n":4,"bus":1},"geometry":{"type":"LineString","coordinates":[[20.046213,50.040136],[20.048945,50.040136]]}},{"type":"Feature","properties":{"id":"c280","lines":"14 16","n":2,"bus":1},"geometry":{"type":"LineString","coordinates":[[20.046213,50.040136],[20.043482,50.041899]]}},{"type":"Feature","properties":{"id":"c281","lines":"21 52","n":2,"bus":1},"geometry":{"type":"LineString","coordinates":[[20.046213,50.040136],[20.046213,50.043661]]}},{"type":"Feature","properties":{"id":"c282","lines":"9 14 16 21 52","n":5,"bus":1},"geometry":{"type":"LineString","coordinates":[[20.048945,50.040136],[20.048945,50.038373]]}},{"type":"Feature","properties":{"id":"c290","lines":"21 22 74 75","n":4,"bus":1},"geometry":{"type":"LineString","coordinates":[[20.065334,50.038373],[20.062603,50.038373],[20.05714,50.034848]]}},{"type":"Feature","properties":{"id":"c291","lines":"21 22 74 75","n":4,"bus":1},"geometry":{"type":"LineString","coordinates":[[20.065334,50.038373],[20.070797,50.038373]]}},{"type":"Feature","properties":{"id":"c296","lines":"10 16","n":2,"bus":1},"geometry":{"type":"LineString","coordinates":[[20.065334,50.033085],[20.059871,50.033085]]}},{"type":"Feature","properties":{"id":"c298","lines":"10 16","n":2,"bus":1},"geometry":{"type":"LineString","coordinates":[[20.065334,50.033085],[20.073529,50.033085],[20.07626,50.034848]]}},{"type":"Feature","properties":{"id":"c300","lines":"10 16","n":2,"bus":1},"geometry":{"type":"LineString","coordinates":[[20.059871,50.033085],[20.05714,50.034848]]}},{"type":"Feature","properties":{"id":"c315","lines":"11 20 76","n":3,"bus":1},"geometry":{"type":"LineString","coordinates":[[20.029824,50.018984],[20.027092,50.017221],[20.024361,50.017221]]}},{"type":"Feature","properties":{"id":"c322","lines":"5 9 10 49 52 74 75","n":7,"bus":1},"geometry":{"type":"LineString","coordinates":[[20.027092,50.02956],[20.024361,50.027797]]}},{"type":"Feature","properties":{"id":"c323","lines":"5 9 10 52 74 75","n":6,"bus":0},"geometry":{"type":"LineString","coordinates":[[20.027092,50.02956],[20.035287,50.02956],[20.038019,50.031323]]}},{"type":"Feature","properties":{"id":"c333","lines":"76","n":1,"bus":0},"geometry":{"type":"LineString","coordinates":[[20.018898,50.02956],[20.018898,50.027797],[20.016166,50.026035]]}},{"type":"Feature","properties":{"id":"c334","lines":"1 10 14 20 22 52 62 74 75","n":9,"bus":1},"geometry":{"type":"LineString","coordinates":[[20.018898,50.026035],[20.016166,50.024272]]}},{"type":"Feature","properties":{"id":"c336","lines":"5 9 10 49 52 74 75","n":7,"bus":1},"geometry":{"type":"LineString","coordinates":[[20.018898,50.026035],[20.021629,50.027797],[20.024361,50.027797]]}},{"type":"Feature","properties":{"id":"c339","lines":"1 9 14 17 20 22 49 50 62","n":9,"bus":1},"geometry":{"type":"LineString","coordinates":[[20.018898,50.026035],[20.018898,50.024272],[20.016166,50.022509]]}},{"type":"Feature","properties":{"id":"c340","lines":"5 17 50","n":3,"bus":0},"geometry":{"type":"LineString","coordinates":[[20.018898,50.026035],[20.016166,50.027797],[20.013435,50.027797]]}},{"type":"Feature","properties":{"id":"c341","lines":"1 10 14 20 22 52 62 74 75 76","n":10,"bus":1},"geometry":{"type":"LineString","coordinates":[[20.016166,50.024272],[20.010703,50.024272]]}},{"type":"Feature","properties":{"id":"c342","lines":"76","n":1,"bus":1},"geometry":{"type":"LineString","coordinates":[[20.016166,50.024272],[20.016166,50.026035]]}},{"type":"Feature","properties":{"id":"c344","lines":"18 20 75","n":3,"bus":1},"geometry":{"type":"LineString","coordinates":[[20.010703,50.024272],[20.007971,50.024272]]}},{"type":"Feature","properties":{"id":"c345","lines":"1 3 10 14 18 22 52 62 69 74 76","n":11,"bus":1},"geometry":{"type":"LineString","coordinates":[[20.010703,50.024272],[20.010703,50.022509]]}},{"type":"Feature","properties":{"id":"c359","lines":"8 14","n":2,"bus":0},"geometry":{"type":"LineString","coordinates":[[19.999777,50.020747],[20.002508,50.020747]]}},{"type":"Feature","properties":{"id":"c360","lines":"1 13","n":2,"bus":1},"geometry":{"type":"LineString","coordinates":[[19.999777,50.018984],[19.994314,50.015459],[19.991582,50.015459]]}},{"type":"Feature","properties":{"id":"c361","lines":"1 13","n":2,"bus":1},"geometry":{"type":"LineString","coordinates":[[19.999777,50.018984],[20.002508,50.020747]]}},{"type":"Feature","properties":{"id":"c370","lines":"11 20 76","n":3,"bus":1},"geometry":{"type":"LineString","coordinates":[[20.024361,50.017221],[20.018898,50.017221]]}},{"type":"Feature","properties":{"id":"c376","lines":"9 17 20 49 50","n":5,"bus":1},"geometry":{"type":"LineString","coordinates":[[20.018898,50.017221],[20.016166,50.018984]]}},{"type":"Feature","properties":{"id":"c377","lines":"9 11 17 49 50 76","n":6,"bus":0},"geometry":{"type":"LineString","coordinates":[[20.018898,50.017221],[20.013435,50.013696],[20.013435,50.011933]]}},{"type":"Feature","properties":{"id":"c385","lines":"1 14 22 62","n":4,"bus":1},"geometry":{"type":"LineString","coordinates":[[20.027092,50.026035],[20.024361,50.026035]]}},{"type":"Feature","properties":{"id":"c386","lines":"1 14 22 62","n":4,"bus":1},"geometry":{"type":"LineString","coordinates":[[20.027092,50.026035],[20.029824,50.027797]]}},{"type":"Feature","properties":{"id":"c389","lines":"1 14 22 62","n":4,"bus":0},"geometry":{"type":"LineString","coordinates":[[20.024361,50.026035],[20.021629,50.024272]]}},{"type":"Feature","properties":{"id":"c393","lines":"18 22 52 62","n":4,"bus":1},"geometry":{"type":"LineString","coordinates":[[19.994314,50.013696],[19.994314,50.008408]]}},{"type":"Feature","properties":{"id":"c401","lines":"3 13 17 69 74 76","n":6,"bus":1},"geometry":{"type":"LineString","coordinates":[[20.010703,50.015459],[20.010703,50.011933]]}},{"type":"Feature","properties":{"id":"c402","lines":"3 69 74","n":3,"bus":1},"geometry":{"type":"LineString","coordinates":[[20.010703,50.015459],[20.010703,50.018984]]}},{"type":"Feature","properties":{"id":"c404","lines":"13 17 76","n":3,"bus":0},"geometry":{"type":"LineString","coordinates":[[20.010703,50.015459],[20.007971,50.015459]]}},{"type":"Feature","properties":{"id":"c407","lines":"9 17 20 49 50","n":5,"bus":1},"geometry":{"type":"LineString","coordinates":[[20.016166,50.018984],[20.016166,50.020747]]}},{"type":"Feature","properties":{"id":"c410","lines":"1 14 22 62","n":4,"bus":1},"geometry":{"type":"LineString","coordinates":[[20.029824,50.027797],[20.032555,50.02956],[20.038019,50.02956]]}},{"type":"Feature","properties":{"id":"c428","lines":"18 50 69 75","n":4,"bus":1},"geometry":{"type":"LineString","coordinates":[[20.021629,50.043661],[20.024361,50.045424],[20.027092,50.045424]]}},{"type":"Feature","properties":{"id":"c429","lines":"18 50 69 75","n":4,"bus":0},"geometry":{"type":"LineString","coordinates":[[20.021629,50.043661],[20.018898,50.041899],[20.018898,50.040136]]}},{"type":"Feature","properties":{"id":"c437","lines":"74","n":1,"bus":1},"geometry":{"type":"LineString","coordinates":[[20.078992,50.038373],[20.078992,50.040136]]}},{"type":"Feature","properties":{"id":"c438","lines":"21 22 74 75","n":4,"bus":1},"geometry":{"type":"LineString","coordinates":[[20.078992,50.038373],[20.070797,50.038373]]}},{"type":"Feature","properties":{"id":"c440","lines":"21 22 75","n":3,"bus":0},"geometry":{"type":"LineString","coordinates":[[20.078992,50.038373],[20.078992,50.036611]]}},{"type":"Feature","properties":{"id":"c457","lines":"74","n":1,"bus":1},"geometry":{"type":"LineString","coordinates":[[20.078992,50.040136],[20.07626,50.041899]]}},{"type":"Feature","properties":{"id":"c459","lines":"74","n":1,"bus":0},"geometry":{"type":"LineString","coordinates":[[20.07626,50.041899],[20.070797,50.041899]]}},{"type":"Feature","properties":{"id":"c479","lines":"3 9 13 49 69","n":5,"bus":1},"geometry":{"type":"LineString","coordinates":[[20.021629,50.004883],[20.024361,50.006645],[20.027092,50.006645]]}},{"type":"Feature","properties":{"id":"c481","lines":"3 9 13 49 69","n":5,"bus":0},"geometry":{"type":"LineString","coordinates":[[20.021629,50.004883],[20.018898,50.006645]]}},{"type":"Feature","properties":{"id":"c482","lines":"3 9 13 49 69","n":5,"bus":1},"geometry":{"type":"LineString","coordinates":[[20.018898,50.006645],[20.016166,50.008408]]}},{"type":"Feature","properties":{"id":"c484","lines":"11 50 74","n":3,"bus":1},"geometry":{"type":"LineString","coordinates":[[20.016166,50.008408],[20.016166,50.00312],[20.013435,50.001357]]}},{"type":"Feature","properties":{"id":"c485","lines":"3 9 11 13 49 50 69 74","n":8,"bus":1},"geometry":{"type":"LineString","coordinates":[[20.016166,50.008408],[20.013435,50.010171]]}},{"type":"Feature","properties":{"id":"c490","lines":"8 10 17","n":3,"bus":1},"geometry":{"type":"LineString","coordinates":[[19.999777,50.011933],[19.999777,50.006645]]}},{"type":"Feature","properties":{"id":"c491","lines":"8 10 17","n":3,"bus":1},"geometry":{"type":"LineString","coordinates":[[19.999777,50.011933],[20.002508,50.011933],[20.007971,50.015459]]}},{"type":"Feature","properties":{"id":"c496","lines":"1 14 22 62","n":4,"bus":1},"geometry":{"type":"LineString","coordinates":[[20.043482,50.031323],[20.046213,50.033085]]}},{"type":"Feature","properties":{"id":"c497","lines":"1 14 22 62","n":4,"bus":1},"geometry":{"type":"LineString","coordinates":[[20.043482,50.031323],[20.04075,50.02956],[20.038019,50.02956]]}},{"type":"Feature","properties":{"id":"c499","lines":"10 22 62 74 75","n":5,"bus":1},"geometry":{"type":"LineString","coordinates":[[20.046213,50.033085],[20.054408,50.033085],[20.05714,50.034848]]}},{"type":"Feature","properties":{"id":"c500","lines":"5 9 10 52 74 75","n":6,"bus":1},"geometry":{"type":"LineString","coordinates":[[20.046213,50.033085],[20.04075,50.033085],[20.038019,50.031323]]}},{"type":"Feature","properties":{"id":"c502","lines":"10","n":1,"bus":1},"geometry":{"type":"LineString","coordinates":[[20.07626,50.034848],[20.081724,50.034848]]}},{"type":"Feature","properties":{"id":"c504","lines":"10 21","n":2,"bus":0},"geometry":{"type":"LineString","coordinates":[[20.081724,50.034848],[20.089918,50.034848]]}},{"type":"Feature","properties":{"id":"c505","lines":"21","n":1,"bus":0},"geometry":{"type":"LineString","coordinates":[[20.081724,50.034848],[20.078992,50.036611]]}},{"type":"Feature","properties":{"id":"c515","lines":"8 22 50","n":3,"bus":1},"geometry":{"type":"LineString","coordinates":[[19.991582,49.999595],[19.994314,50.001357]]}},{"type":"Feature","properties":{"id":"c517","lines":"3 9 13 49 69","n":5,"bus":1},"geometry":{"type":"LineString","coordinates":[[20.027092,50.006645],[20.032555,50.006645]]}},{"type":"Feature","properties":{"id":"c519","lines":"3 9 13 49 69","n":5,"bus":1},"geometry":{"type":"LineString","coordinates":[[20.032555,50.006645],[20.035287,50.008408]]}},{"type":"Feature","properties":{"id":"c549","lines":"10 11 50","n":3,"bus":1},"geometry":{"type":"LineString","coordinates":[[19.999777,49.999595],[19.997045,49.999595]]}},{"type":"Feature","properties":{"id":"c566","lines":"18 50 69 75","n":4,"bus":1},"geometry":{"type":"LineString","coordinates":[[20.016166,50.038373],[20.018898,50.040136]]}},{"type":"Feature","properties":{"id":"c588","lines":"18 52 62","n":3,"bus":1},"geometry":{"type":"LineString","coordinates":[[19.994314,50.008408],[19.994314,50.006645]]}},{"type":"Feature","properties":{"id":"c589","lines":"22","n":1,"bus":0},"geometry":{"type":"LineString","coordinates":[[19.994314,50.008408],[19.997045,50.006645]]}},{"type":"Feature","properties":{"id":"c590","lines":"11 17 18 52 62","n":5,"bus":1},"geometry":{"type":"LineString","coordinates":[[19.994314,50.006645],[19.991582,50.006645]]}},{"type":"Feature","properties":{"id":"c591","lines":"11 17","n":2,"bus":0},"geometry":{"type":"LineString","coordinates":[[19.994314,50.006645],[19.997045,50.006645]]}},{"type":"Feature","properties":{"id":"c844","lines":"10 11 50","n":3,"bus":0},"geometry":{"type":"LineString","coordinates":[[19.997045,49.999595],[19.994314,50.001357]]}},{"type":"Feature","properties":{"id":"c1083","lines":"9 17 20 49 50","n":5,"bus":0},"geometry":{"type":"LineString","coordinates":[[20.016166,50.020747],[20.016166,50.022509]]}},{"type":"Feature","properties":{"id":"c1085","lines":"1 14 22 62","n":4,"bus":0},"geometry":{"type":"LineString","coordinates":[[20.016166,50.022509],[20.018898,50.022509],[20.021629,50.024272]]}},{"type":"Feature","properties":{"id":"c1086","lines":"8 10 11 22","n":4,"bus":1},"geometry":{"type":"LineString","coordinates":[[19.999777,50.006645],[19.994314,50.00312],[19.994314,50.001357]]}},{"type":"Feature","properties":{"id":"c1087","lines":"8 10 11 22","n":4,"bus":0},"geometry":{"type":"LineString","coordinates":[[19.999777,50.006645],[19.999777,50.004883],[19.994314,50.001357]]}},{"type":"Feature","properties":{"id":"c1088","lines":"11 17 22","n":3,"bus":0},"geometry":{"type":"LineString","coordinates":[[19.999777,50.006645],[19.997045,50.006645]]}},{"type":"Feature","properties":{"id":"c1089","lines":"22 52 62","n":3,"bus":1},"geometry":{"type":"LineString","coordinates":[[20.007971,50.017221],[20.010703,50.018984]]}},{"type":"Feature","properties":{"id":"c1090","lines":"8 10 13 76","n":4,"bus":1},"geometry":{"type":"LineString","coordinates":[[20.007971,50.017221],[20.007971,50.015459]]}},{"type":"Feature","properties":{"id":"c1091","lines":"8 10 13 18 76","n":5,"bus":0},"geometry":{"type":"LineString","coordinates":[[20.007971,50.017221],[20.007971,50.018984]]}},{"type":"Feature","properties":{"id":"c1092","lines":"3 22 52 62 69 74","n":6,"bus":1},"geometry":{"type":"LineString","coordinates":[[20.010703,50.018984],[20.010703,50.022509]]}},{"type":"Feature","properties":{"id":"c1093","lines":"1 14","n":2,"bus":1},"geometry":{"type":"LineString","coordinates":[[20.010703,50.022509],[20.007971,50.022509],[20.00524,50.020747]]}},{"type":"Feature","properties":{"id":"c1094","lines":"10 18 76","n":3,"bus":0},"geometry":{"type":"LineString","coordinates":[[20.010703,50.022509],[20.010703,50.020747],[20.007971,50.018984]]}},{"type":"Feature","properties":{"id":"c1095","lines":"10 18 76","n":3,"bus":0},"geometry":{"type":"LineString","coordinates":[[20.010703,50.022509],[20.007971,50.020747]]}},{"type":"Feature","properties":{"id":"c1096","lines":"3 13 69 74","n":4,"bus":1},"geometry":{"type":"LineString","coordinates":[[20.013435,50.010171],[20.010703,50.011933]]}},{"type":"Feature","properties":{"id":"c1097","lines":"9 11 49 50","n":4,"bus":0},"geometry":{"type":"LineString","coordinates":[[20.013435,50.010171],[20.013435,50.011933]]}},{"type":"Feature","properties":{"id":"c1098","lines":"17 76","n":2,"bus":0},"geometry":{"type":"LineString","coordinates":[[20.010703,50.011933],[20.013435,50.011933]]}},{"type":"Feature","properties":{"id":"c1099","lines":"1 8 13 14","n":4,"bus":1},"geometry":{"type":"LineString","coordinates":[[20.00524,50.020747],[20.002508,50.020747]]}},{"type":"Feature","properties":{"id":"c1100","lines":"8 13","n":2,"bus":0},"geometry":{"type":"LineString","coordinates":[[20.00524,50.020747],[20.007971,50.020747]]}},{"type":"Feature","properties":{"id":"c1101","lines":"8 10 13 18 76","n":5,"bus":0},"geometry":{"type":"LineString","coordinates":[[20.007971,50.018984],[20.007971,50.020747]]}}]}